{"type": "FeatureCollection", "features": [ {"type": "Feature", "properties": {"norad_id": 66635, "name": "STARLINK-35955", "group": "last-30-days", "lat": 30.132396203766227, "lon": 162.38994265976623, "alt_km": 442.90542965041186, "timestamp": "2025-12-23T09:49:05.795764+00:00", "meta": {"OBJECT_NAME": "STARLINK-35955", "OBJECT_ID": "2025-271U", "EPOCH": "2025-12-22T16:30:47.762784", "MEAN_MOTION": 15.39617924, "ECCENTRICITY": 0.00011126, "INCLINATION": 53.1619, "RA_OF_ASC_NODE": 139.9948, "ARG_OF_PERICENTER": 92.8887, "MEAN_ANOMALY": 267.2246, "EPHEMERIS_TYPE": 0, "CLASSIFICATION_TYPE": "U", "NORAD_CAT_ID": 66635, "ELEMENT_SET_NO": 999, "REV_AT_EPOCH": 574, "BSTAR": 0.0014728195, "MEAN_MOTION_DOT": 0.00058965, "MEAN_MOTION_DDOT": 0}, "tle": {"line1": "1 66635U 25271U   25356.68805281  .00058965  00000+0  14728-2 0  9998", "line2": "2 66635  53.1619 139.9948 0001112  92.8887 267.2246 15.39617924  5745"}}, "geometry": {"type": "Point", "coordinates": [162.38994265976623, 30.132396203766227]}}, {"type": "Feature", "properties": {"norad_id": 66636, "name": "STARLINK-35968", "group": "last-30-days", "lat": 10.421415855015985, "lon": 144.57188798575322, "alt_km": 446.4501392981847, "timestamp": "2025-12-23T09:49:05.795774+00:00", "meta": {"OBJECT_NAME": "STARLINK-35968", "OBJECT_ID": "2025-271V", "EPOCH": "2025-12-22T18:10:57.478080", "MEAN_MOTION": 15.39623734, "ECCENTRICITY": 7.152e-05, "INCLINATION": 53.1613, "RA_OF_ASC_NODE": 139.7173, "ARG_OF_PERICENTER": 97.5521, "MEAN_ANOMALY": 262.5565, "EPHEMERIS_TYPE": 0, "CLASSIFICATION_TYPE": "U", "NORAD_CAT_ID": 66636, "ELEMENT_SET_NO": 999, "REV_AT_EPOCH": 575, "BSTAR": 0.0012036334, "MEAN_MOTION_DOT": 0.00048054, "MEAN_MOTION_DDOT": 0}, "tle": {"line1": "1 66636U 25271V   25356.75760970  .00048054  00000+0  12036-2 0  9990", "line2": "2 66636  53.1613 139.7173 0000715  97.5521 262.5565 15.39623734  5752"}}, "geometry": {"type": "Point", "coordinates": [144.57188798575322, 10.421415855015985]}}, {"type": "Feature", "properties": {"norad_id": 66637, "name": "STARLINK-35953", "group": "last-30-days", "lat": 46.296362246681824, "lon": -171.79052867023066, "alt_km": 440.27319830535816, "timestamp": "2025-12-23T09:49:05.795787+00:00", "meta": {"OBJECT_NAME": "STARLINK-35953", "OBJECT_ID": "2025-271W", "EPOCH": "2025-12-22T19:31:03.800352", "MEAN_MOTION": 15.3962561, "ECCENTRICITY": 9.742e-05, "INCLINATION": 53.1613, "RA_OF_ASC_NODE": 139.3531, "ARG_OF_PERICENTER": 94.7147, "MEAN_ANOMALY": 265.3969, "EPHEMERIS_TYPE": 0, "CLASSIFICATION_TYPE": "U", "NORAD_CAT_ID": 66637, "ELEMENT_SET_NO": 999, "REV_AT_EPOCH": 576, "BSTAR": 0.0013743758, "MEAN_MOTION_DOT": 0.00054982, "MEAN_MOTION_DDOT": 0}, "tle": {"line1": "1 66637U 25271W   25356.81323843  .00054982  00000+0  13744-2 0  9996", "line2": "2 66637  53.1613 139.3531 0000974  94.7147 265.3969 15.39625610  5762"}}, "geometry": {"type": "Point", "coordinates": [-171.79052867023066, 46.296362246681824]}}, {"type": "Feature", "properties": {"norad_id": 66638, "name": "STARLINK-35972", "group": "last-30-days", "lat": 45.93119234362168, "lon": -94.31358723108085, "alt_km": 440.5140727745529, "timestamp": "2025-12-23T09:49:05.795798+00:00", "meta": {"OBJECT_NAME": "STARLINK-35972", "OBJECT_ID": "2025-271X", "EPOCH": "2025-12-22T22:00:03.000096", "MEAN_MOTION": 15.39584396, "ECCENTRICITY": 0.00012182, "INCLINATION": 53.1607, "RA_OF_ASC_NODE": 138.7642, "ARG_OF_PERICENTER": 65.5747, "MEAN_ANOMALY": 199.8021, "EPHEMERIS_TYPE": 0, "CLASSIFICATION_TYPE": "U", "NORAD_CAT_ID": 66638, "ELEMENT_SET_NO": 999, "REV_AT_EPOCH": 587, "BSTAR": 0.001246452, "MEAN_MOTION_DOT": 0.00049725, "MEAN_MOTION_DDOT": 0}, "tle": {"line1": "1 66638U 25271X   25356.91670139  .00049725  00000+0  12465-2 0  9999", "line2": "2 66638  53.1607 138.7642 0001218  65.5747 199.8021 15.39584396  5873"}}, "geometry": {"type": "Point", "coordinates": [-94.31358723108085, 45.93119234362168]}}, {"type": "Feature", "properties": {"norad_id": 66639, "name": "STARLINK-35908", "group": "last-30-days", "lat": 29.57941137908845, "lon": -68.7924725860593, "alt_km": 443.23980144187954, "timestamp": "2025-12-23T09:49:05.795809+00:00", "meta": {"OBJECT_NAME": "STARLINK-35908", "OBJECT_ID": "2025-271Y", "EPOCH": "2025-12-22T22:00:03.000096", "MEAN_MOTION": 15.39578722, "ECCENTRICITY": 0.00012766, "INCLINATION": 53.1609, "RA_OF_ASC_NODE": 138.7123, "ARG_OF_PERICENTER": 77.1503, "MEAN_ANOMALY": 214.0023, "EPHEMERIS_TYPE": 0, "CLASSIFICATION_TYPE": "U", "NORAD_CAT_ID": 66639, "ELEMENT_SET_NO": 999, "REV_AT_EPOCH": 587, "BSTAR": 0.0012700714, "MEAN_MOTION_DOT": 0.00050671, "MEAN_MOTION_DDOT": 0}, "tle": {"line1": "1 66639U 25271Y   25356.91670139  .00050671  00000+0  12701-2 0  9995", "line2": "2 66639  53.1609 138.7123 0001276  77.1503 214.0023 15.39578722  5871"}}, "geometry": {"type": "Point", "coordinates": [-68.7924725860593, 29.57941137908845]}}, {"type": "Feature", "properties": {"norad_id": 66640, "name": "STARLINK-35921", "group": "last-30-days", "lat": 53.13932655013139, "lon": -132.97496547044284, "alt_km": 439.43989328492717, "timestamp": "2025-12-23T09:49:05.795819+00:00", "meta": {"OBJECT_NAME": "STARLINK-35921", "OBJECT_ID": "2025-271Z", "EPOCH": "2025-12-22T22:00:03.000096", "MEAN_MOTION": 15.39587321, "ECCENTRICITY": 0.00010091, "INCLINATION": 53.16, "RA_OF_ASC_NODE": 138.8149, "ARG_OF_PERICENTER": 59.5772, "MEAN_ANOMALY": 180.0542, "EPHEMERIS_TYPE": 0, "CLASSIFICATION_TYPE": "U", "NORAD_CAT_ID": 66640, "ELEMENT_SET_NO": 999, "REV_AT_EPOCH": 587, "BSTAR": 0.0012518088, "MEAN_MOTION_DOT": 0.00049946, "MEAN_MOTION_DDOT": 0}, "tle": {"line1": "1 66640U 25271Z   25356.91670139  .00049946  00000+0  12518-2 0  9996", "line2": "2 66640  53.1600 138.8149 0001009  59.5772 180.0542 15.39587321  5872"}}, "geometry": {"type": "Point", "coordinates": [-132.97496547044284, 53.13932655013139]}}, {"type": "Feature", "properties": {"norad_id": 66641, "name": "STARLINK-35923", "group": "last-30-days", "lat": -38.99899102347229, "lon": -6.409777706198048, "alt_km": 434.71575712738104, "timestamp": "2025-12-23T09:49:05.795829+00:00", "meta": {"OBJECT_NAME": "STARLINK-35923", "OBJECT_ID": "2025-271AA", "EPOCH": "2025-12-22T22:00:03.000096", "MEAN_MOTION": 15.45516625, "ECCENTRICITY": 0.00012523, "INCLINATION": 53.1604, "RA_OF_ASC_NODE": 138.5533, "ARG_OF_PERICENTER": 71.0238, "MEAN_ANOMALY": 299.5235, "EPHEMERIS_TYPE": 0, "CLASSIFICATION_TYPE": "U", "NORAD_CAT_ID": 66641, "ELEMENT_SET_NO": 999, "REV_AT_EPOCH": 587, "BSTAR": 0.0019147665, "MEAN_MOTION_DOT": 0.00094065, "MEAN_MOTION_DDOT": 0}, "tle": {"line1": "1 66641U 25271AA  25356.91670139  .00094065  00000+0  19148-2 0  9995", "line2": "2 66641  53.1604 138.5533 0001252  71.0238 299.5235 15.45516625  5878"}}, "geometry": {"type": "Point", "coordinates": [-6.409777706198048, -38.99899102347229]}}, {"type": "Feature", "properties": {"norad_id": 66642, "name": "STARLINK-35926", "group": "last-30-days", "lat": -37.76765634278114, "lon": -8.272992782525028, "alt_km": 434.70673609043297, "timestamp": "2025-12-23T09:49:05.795841+00:00", "meta": {"OBJECT_NAME": "STARLINK-35926", "OBJECT_ID": "2025-271AB", "EPOCH": "2025-12-22T22:00:03.000096", "MEAN_MOTION": 15.45541958, "ECCENTRICITY": 0.00011956, "INCLINATION": 53.1604, "RA_OF_ASC_NODE": 138.558, "ARG_OF_PERICENTER": 62.7461, "MEAN_ANOMALY": 305.8814, "EPHEMERIS_TYPE": 0, "CLASSIFICATION_TYPE": "U", "NORAD_CAT_ID": 66642, "ELEMENT_SET_NO": 999, "REV_AT_EPOCH": 564, "BSTAR": 0.00099360748, "MEAN_MOTION_DOT": 0.00048359, "MEAN_MOTION_DDOT": 0}, "tle": {"line1": "1 66642U 25271AB  25356.91670139  .00048359  00000+0  99361-3 0  9997", "line2": "2 66642  53.1604 138.5580 0001195  62.7461 305.8814 15.45541958  5648"}}, "geometry": {"type": "Point", "coordinates": [-8.272992782525028, -37.76765634278114]}}, {"type": "Feature", "properties": {"norad_id": 66643, "name": "STARLINK-35918", "group": "last-30-days", "lat": 9.826770216673118, "lon": -51.120540884898965, "alt_km": 446.7219838469955, "timestamp": "2025-12-23T09:49:05.795856+00:00", "meta": {"OBJECT_NAME": "STARLINK-35918", "OBJECT_ID": "2025-271AC", "EPOCH": "2025-12-22T22:00:03.000096", "MEAN_MOTION": 15.39580673, "ECCENTRICITY": 0.00011401, "INCLINATION": 53.1608, "RA_OF_ASC_NODE": 138.6614, "ARG_OF_PERICENTER": 77.0771, "MEAN_ANOMALY": 239.8286, "EPHEMERIS_TYPE": 0, "CLASSIFICATION_TYPE": "U", "NORAD_CAT_ID": 66643, "ELEMENT_SET_NO": 999, "REV_AT_EPOCH": 587, "BSTAR": 0.0012457141, "MEAN_MOTION_DOT": 0.00049688, "MEAN_MOTION_DDOT": 0}, "tle": {"line1": "1 66643U 25271AC  25356.91670139  .00049688  00000+0  12457-2 0  9994", "line2": "2 66643  53.1608 138.6614 0001140  77.0771 239.8286 15.39580673  5879"}}, "geometry": {"type": "Point", "coordinates": [-51.120540884898965, 9.826770216673118]}}, {"type": "Feature", "properties": {"norad_id": 66644, "name": "STARLINK-35938", "group": "last-30-days", "lat": -36.504292692059956, "lon": -10.079654605306082, "alt_km": 434.71813079577987, "timestamp": "2025-12-23T09:49:05.795869+00:00", "meta": {"OBJECT_NAME": "STARLINK-35938", "OBJECT_ID": "2025-271AD", "EPOCH": "2025-12-22T22:00:03.000096", "MEAN_MOTION": 15.45548441, "ECCENTRICITY": 0.00012583, "INCLINATION": 53.1605, "RA_OF_ASC_NODE": 138.5624, "ARG_OF_PERICENTER": 59.2648, "MEAN_ANOMALY": 307.4441, "EPHEMERIS_TYPE": 0, "CLASSIFICATION_TYPE": "U", "NORAD_CAT_ID": 66644, "ELEMENT_SET_NO": 999, "REV_AT_EPOCH": 587, "BSTAR": 0.00067190572, "MEAN_MOTION_DOT": 0.00032503, "MEAN_MOTION_DDOT": 0}, "tle": {"line1": "1 66644U 25271AD  25356.91670139  .00032503  00000+0  67191-3 0  9999", "line2": "2 66644  53.1605 138.5624 0001258  59.2648 307.4441 15.45548441  5871"}}, "geometry": {"type": "Point", "coordinates": [-10.079654605306082, -36.504292692059956]}}]}